start=new Date('2023-05-06T00:00:00.000Z').valueOf();
sats=[{"DECAY_DATE":null,"LAUNCH_DATE":"2021-05-04","REF_FRAME":"TEME","COUNTRY_CODE":"US","OBJECT_NAME":"STARLINK-2631","PERIAPSIS":"546.448","APOAPSIS":"547.828","NORAD_CAT_ID":"48366","OBJECT_ID":"2021-038P","CLASSIFICATION_TYPE":"U","MEAN_ANOMALY":"297.6915","EPHEMERIS_TYPE":"0","CENTER_NAME":"EARTH","RA_OF_ASC_NODE":"335.1492","ELEMENT_SET_NO":"999","OBJECT_TYPE":"PAYLOAD","INCLINATION":"53.0541","MEAN_ELEMENT_THEORY":"SGP4","REV_AT_EPOCH":"11117","TIME_SYSTEM":"UTC","ARG_OF_PERICENTER":"62.4175","GP_ID":"231291538","PERIOD":"95.591","ECCENTRICITY":"0.00009960","TLE_LINE1":"1 48366U 21038P   23125.85014892  .00022166  00000-0  15013-2 0  9990","TLE_LINE2":"2 48366  53.0541 335.1492 0000996  62.4175 297.6915 15.06424704111176","MEAN_MOTION":"15.06424704","RCS_SIZE":"LARGE","FILE":"3901841","SEMIMAJOR_AXIS":"6925.273","SITE":"AFETR","BSTAR":"0.00150130000000","MEAN_MOTION_DOT":"0.00022166","MEAN_MOTION_DDOT":"0.0000000000000","EPOCH":"2023-05-05T20:24:12.866688"},{"REV_AT_EPOCH":"11117","MEAN_ELEMENT_THEORY":"SGP4","OBJECT_TYPE":"PAYLOAD","INCLINATION":"53.0532","ARG_OF_PERICENTER":"79.1788","TIME_SYSTEM":"UTC","GP_ID":"231292259","PERIOD":"95.589","FILE":"3901846","SEMIMAJOR_AXIS":"6925.203","RCS_SIZE":"LARGE","MEAN_MOTION_DDOT":"0.0000000000000","EPOCH":"2023-05-05T20:18:53.825184","MEAN_MOTION_DOT":"0.00023675","SITE":"AFETR","BSTAR":"0.00160090000000","ECCENTRICITY":"0.00012760","TLE_LINE2":"2 48367  53.0532 335.1664 0001276  79.1788 280.9345 15.06447620111179","TLE_LINE1":"1 48367U 21038Q   23125.84645631  .00023675  00000-0  16009-2 0  9993","MEAN_MOTION":"15.06447620","COUNTRY_CODE":"US","OBJECT_NAME":"STARLINK-2643","DECAY_DATE":null,"REF_FRAME":"TEME","LAUNCH_DATE":"2021-05-04","PERIAPSIS":"546.184","EPHEMERIS_TYPE":"0","CENTER_NAME":"EARTH","APOAPSIS":"547.951","CLASSIFICATION_TYPE":"U","MEAN_ANOMALY":"280.9345","OBJECT_ID":"2021-038Q","NORAD_CAT_ID":"48367","ELEMENT_SET_NO":"999","RA_OF_ASC_NODE":"335.1664"},{"GP_ID":"231289969","PERIOD":"95.591","RCS_SIZE":"LARGE","FILE":"3901759","SEMIMAJOR_AXIS":"6925.307","SITE":"AFETR","MEAN_MOTION_DOT":"0.00023041","BSTAR":"0.00156010000000","MEAN_MOTION_DDOT":"0.0000000000000","EPOCH":"2023-05-05T19:47:06.799200","ECCENTRICITY":"0.00012290","TLE_LINE2":"2 48368  53.0535 335.5449 0001229  76.4394 283.6732 15.06413441111173","TLE_LINE1":"1 48368U 21038R   23125.82438425  .00023041  00000-0  15601-2 0  9997","MEAN_MOTION":"15.06413441","MEAN_ELEMENT_THEORY":"SGP4","REV_AT_EPOCH":"11117","OBJECT_TYPE":"PAYLOAD","INCLINATION":"53.0535","TIME_SYSTEM":"UTC","ARG_OF_PERICENTER":"76.4394","EPHEMERIS_TYPE":"0","CENTER_NAME":"EARTH","APOAPSIS":"548.023","NORAD_CAT_ID":"48368","OBJECT_ID":"2021-038R","CLASSIFICATION_TYPE":"U","MEAN_ANOMALY":"283.6732","ELEMENT_SET_NO":"999","RA_OF_ASC_NODE":"335.5449","COUNTRY_CODE":"US","OBJECT_NAME":"STARLINK-2623","DECAY_DATE":null,"LAUNCH_DATE":"2021-05-04","REF_FRAME":"TEME","PERIAPSIS":"546.321"},{"ECCENTRICITY":"0.00011120","TLE_LINE1":"1 48369U 21038S   23124.84757262  .00014397  00000-0  98373-3 0  9994","TLE_LINE2":"2 48369  53.0540 339.6526 0001112  84.6229 275.4887 15.06389161110439","MEAN_MOTION":"15.06389161","FILE":"3901186","RCS_SIZE":"LARGE","SEMIMAJOR_AXIS":"6925.382","MEAN_MOTION_DDOT":"0.0000000000000","EPOCH":"2023-05-04T20:20:30.274368","SITE":"AFETR","BSTAR":"0.00098373000000","MEAN_MOTION_DOT":"0.00014397","GP_ID":"231271243","PERIOD":"95.593","ARG_OF_PERICENTER":"84.6229","TIME_SYSTEM":"UTC","OBJECT_TYPE":"PAYLOAD","INCLINATION":"53.0540","REV_AT_EPOCH":"11043","MEAN_ELEMENT_THEORY":"SGP4","RA_OF_ASC_NODE":"339.6526","ELEMENT_SET_NO":"999","APOAPSIS":"548.017","MEAN_ANOMALY":"275.4887","CLASSIFICATION_TYPE":"U","OBJECT_ID":"2021-038S","NORAD_CAT_ID":"48369","EPHEMERIS_TYPE":"0","CENTER_NAME":"EARTH","PERIAPSIS":"546.477","DECAY_DATE":null,"REF_FRAME":"TEME","LAUNCH_DATE":"2021-05-04","COUNTRY_CODE":"US","OBJECT_NAME":"STARLINK-2641"},{"PERIAPSIS":"546.338","REF_FRAME":"TEME","LAUNCH_DATE":"2021-05-04","DECAY_DATE":null,"OBJECT_NAME":"STARLINK-2621","COUNTRY_CODE":"US","ELEMENT_SET_NO":"999","RA_OF_ASC_NODE":"335.1993","CLASSIFICATION_TYPE":"U","MEAN_ANOMALY":"290.7993","NORAD_CAT_ID":"48370","OBJECT_ID":"2021-038T","APOAPSIS":"547.930","CENTER_NAME":"EARTH","EPHEMERIS_TYPE":"0","ARG_OF_PERICENTER":"69.3119","TIME_SYSTEM":"UTC","INCLINATION":"53.0537","OBJECT_TYPE":"PAYLOAD","REV_AT_EPOCH":"11117","MEAN_ELEMENT_THEORY":"SGP4","TLE_LINE1":"1 48370U 21038T   23125.83908711  .00023976  00000-0  16219-2 0  9994","TLE_LINE2":"2 48370  53.0537 335.1993 0001150  69.3119 290.7993 15.06425983111179","MEAN_MOTION":"15.06425983","ECCENTRICITY":"0.00011500","EPOCH":"2023-05-05T20:08:17.126304","MEAN_MOTION_DDOT":"0.0000000000000","BSTAR":"0.00162190000000","SITE":"AFETR","MEAN_MOTION_DOT":"0.00023976","RCS_SIZE":"LARGE","FILE":"3901848","SEMIMAJOR_AXIS":"6925.269","PERIOD":"95.590","GP_ID":"231292296"},{"APOAPSIS":"547.962","OBJECT_ID":"2021-038U","NORAD_CAT_ID":"48371","MEAN_ANOMALY":"250.9669","CLASSIFICATION_TYPE":"U","EPHEMERIS_TYPE":"0","CENTER_NAME":"EARTH","RA_OF_ASC_NODE":"337.3028","ELEMENT_SET_NO":"999","DECAY_DATE":null,"LAUNCH_DATE":"2021-05-04","REF_FRAME":"TEME","COUNTRY_CODE":"US","OBJECT_NAME":"STARLINK-2589","PERIAPSIS":"546.409","GP_ID":"231286092","PERIOD":"95.592","ECCENTRICITY":"0.00011210","TLE_LINE1":"1 48371U 21038U   23125.37098085  .00018275  00000-0  12423-2 0  9997","TLE_LINE2":"2 48371  53.0540 337.3028 0001121 109.1441 250.9669 15.06409261111108","MEAN_MOTION":"15.06409261","FILE":"3901602","RCS_SIZE":"LARGE","SEMIMAJOR_AXIS":"6925.320","SITE":"AFETR","MEAN_MOTION_DOT":"0.00018275","BSTAR":"0.00124230000000","EPOCH":"2023-05-05T08:54:12.745440","MEAN_MOTION_DDOT":"0.0000000000000","OBJECT_TYPE":"PAYLOAD","INCLINATION":"53.0540","MEAN_ELEMENT_THEORY":"SGP4","REV_AT_EPOCH":"11110","TIME_SYSTEM":"UTC","ARG_OF_PERICENTER":"109.1441"},{"INCLINATION":"53.0537","OBJECT_TYPE":"PAYLOAD","REV_AT_EPOCH":"11118","MEAN_ELEMENT_THEORY":"SGP4","ARG_OF_PERICENTER":"106.1638","TIME_SYSTEM":"UTC","PERIOD":"95.590","GP_ID":"231292068","TLE_LINE2":"2 48372  53.0537 334.9343 0001012 106.1638 253.9462 15.06431887111183","MEAN_MOTION":"15.06431887","TLE_LINE1":"1 48372U 21038V   23125.89805913  .00023570  00000-0  15946-2 0  9998","ECCENTRICITY":"0.00010120","EPOCH":"2023-05-05T21:33:12.308832","MEAN_MOTION_DDOT":"0.0000000000000","BSTAR":"0.00159460000000","SITE":"AFETR","MEAN_MOTION_DOT":"0.00023570","RCS_SIZE":"LARGE","FILE":"3901852","SEMIMAJOR_AXIS":"6925.251","REF_FRAME":"TEME","LAUNCH_DATE":"2021-05-04","DECAY_DATE":null,"OBJECT_NAME":"STARLINK-2572","COUNTRY_CODE":"US","PERIAPSIS":"546.415","MEAN_ANOMALY":"253.9462","CLASSIFICATION_TYPE":"U","NORAD_CAT_ID":"48372","OBJECT_ID":"2021-038V","APOAPSIS":"547.817","CENTER_NAME":"EARTH","EPHEMERIS_TYPE":"0","RA_OF_ASC_NODE":"334.9343","ELEMENT_SET_NO":"999"},{"ECCENTRICITY":"0.00012060","TLE_LINE1":"1 48373U 21038W   23125.56264368  .00007863  00000-0  54611-3 0  9996","TLE_LINE2":"2 48373  53.0544 336.4403 0001206 110.5639 249.5480 15.06404818111131","MEAN_MOTION":"15.06404818","FILE":"3901606","RCS_SIZE":"LARGE","SEMIMAJOR_AXIS":"6925.334","EPOCH":"2023-05-05T13:30:12.413952","MEAN_MOTION_DDOT":"0.0000000000000","SITE":"AFETR","MEAN_MOTION_DOT":"0.00007863","BSTAR":"0.00054611000000","GP_ID":"231286225","PERIOD":"95.592","ARG_OF_PERICENTER":"110.5639","TIME_SYSTEM":"UTC","OBJECT_TYPE":"PAYLOAD","INCLINATION":"53.0544","REV_AT_EPOCH":"11113","MEAN_ELEMENT_THEORY":"SGP4","RA_OF_ASC_NODE":"336.4403","ELEMENT_SET_NO":"999","APOAPSIS":"548.034","MEAN_ANOMALY":"249.5480","CLASSIFICATION_TYPE":"U","NORAD_CAT_ID":"48373","OBJECT_ID":"2021-038W","EPHEMERIS_TYPE":"0","CENTER_NAME":"EARTH","PERIAPSIS":"546.364","DECAY_DATE":null,"REF_FRAME":"TEME","LAUNCH_DATE":"2021-05-04","COUNTRY_CODE":"US","OBJECT_NAME":"STARLINK-2609"},{"REV_AT_EPOCH":"11118","MEAN_ELEMENT_THEORY":"SGP4","INCLINATION":"53.0552","OBJECT_TYPE":"PAYLOAD","ARG_OF_PERICENTER":"111.8042","TIME_SYSTEM":"UTC","PERIOD":"95.590","GP_ID":"231292372","EPOCH":"2023-05-05T21:21:13.728672","MEAN_MOTION_DDOT":"0.0000000000000","MEAN_MOTION_DOT":"0.00019648","SITE":"AFETR","BSTAR":"0.00133320000000","RCS_SIZE":"LARGE","FILE":"3901859","SEMIMAJOR_AXIS":"6925.258","TLE_LINE2":"2 48374  53.0552 334.9636 0001142 111.8042 248.3068 15.06429430111184","MEAN_MOTION":"15.06429430","TLE_LINE1":"1 48374U 21038X   23125.88974223  .00019648  00000-0  13332-2 0  9998","ECCENTRICITY":"0.00011420","OBJECT_NAME":"STARLINK-2604","COUNTRY_CODE":"US","REF_FRAME":"TEME","LAUNCH_DATE":"2021-05-04","DECAY_DATE":null,"PERIAPSIS":"546.332","CENTER_NAME":"EARTH","EPHEMERIS_TYPE":"0","MEAN_ANOMALY":"248.3068","CLASSIFICATION_TYPE":"U","OBJECT_ID":"2021-038X","NORAD_CAT_ID":"48374","APOAPSIS":"547.914","ELEMENT_SET_NO":"999","RA_OF_ASC_NODE":"334.9636"},{"PERIOD":"95.590","GP_ID":"231292091","EPOCH":"2023-05-05T21:17:16.759392","MEAN_MOTION_DDOT":"0.0000000000000","SITE":"AFETR","BSTAR":"0.00157580000000","MEAN_MOTION_DOT":"0.00023287","SEMIMAJOR_AXIS":"6925.258","FILE":"3901859","RCS_SIZE":"LARGE","MEAN_MOTION":"15.06429500","TLE_LINE2":"2 48375  53.0536 334.9874 0000908 110.5351 249.5735 15.06429500111181","TLE_LINE1":"1 48375U 21038Y   23125.88699953  .00023287  00000-0  15758-2 0  9991","ECCENTRICITY":"0.00009080","MEAN_ELEMENT_THEORY":"SGP4","REV_AT_EPOCH":"11118","INCLINATION":"53.0536","OBJECT_TYPE":"PAYLOAD","ARG_OF_PERICENTER":"110.5351","TIME_SYSTEM":"UTC","CENTER_NAME":"EARTH","EPHEMERIS_TYPE":"0","CLASSIFICATION_TYPE":"U","MEAN_ANOMALY":"249.5735","NORAD_CAT_ID":"48375","OBJECT_ID":"2021-038Y","APOAPSIS":"547.752","ELEMENT_SET_NO":"999","RA_OF_ASC_NODE":"334.9874","OBJECT_NAME":"STARLINK-2603","COUNTRY_CODE":"US","REF_FRAME":"TEME","LAUNCH_DATE":"2021-05-04","DECAY_DATE":null,"PERIAPSIS":"546.494"}];
